[Satellite]
VERSION=1.1
NAME=MAKERSAT 0
NICKNAME=MAKERSAT 0
TLE1=1 43016U 17073D   19316.73144830  .00001084  00000-0  88790-4 0  9991
TLE2=2 43016  97.7223 232.4229 0258018  39.3847 322.5814 14.78906123107013
STATUS=0
